[{"spaceTrack":{"CCSDS_OMM_VERS":"2.0","COMMENT":"GENERATED VIA SPACE-TRACK.ORG API","CREATION_DATE":"2021-10-26T14:36:12","ORIGINATOR":"18 SPCS","OBJECT_NAME":"STARLINK-1759","OBJECT_ID":"2020-062R","CENTER_NAME":"EARTH","REF_FRAME":"TEME","TIME_SYSTEM":"UTC","MEAN_ELEMENT_THEORY":"SGP4","EPOCH":"2021-10-26T05:11:55.991328","MEAN_MOTION":15.06408287,"ECCENTRICITY":0.0001165,"INCLINATION":53.0544,"RA_OF_ASC_NODE":338.9765,"ARG_OF_PERICENTER":84.9986,"MEAN_ANOMALY":275.1136,"EPHEMERIS_TYPE":0,"CLASSIFICATION_TYPE":"U","NORAD_CAT_ID":46340,"ELEMENT_SET_NO":999,"REV_AT_EPOCH":6401,"BSTAR":0.000078831,"MEAN_MOTION_DOT":0.00000893,"MEAN_MOTION_DDOT":0,"SEMIMAJOR_AXIS":6925.323,"PERIOD":95.592,"APOAPSIS":547.995,"PERIAPSIS":546.381,"OBJECT_TYPE":"PAYLOAD","RCS_SIZE":"LARGE","COUNTRY_CODE":"US","LAUNCH_DATE":"2020-09-03","SITE":"AFETR","DECAY_DATE":null,"DECAYED":0,"FILE":3184612,"GP_ID":188170014,"TLE_LINE0":"0 STARLINK-1759","TLE_LINE1":"1 46340U 20062R   21299.21662027  .00000893  00000-0  78831-4 0  9997","TLE_LINE2":"2 46340  53.0544 338.9765 0001165  84.9986 275.1136 15.06408287 64015"},"height_km":549.4367155144346,"latitude":-7.143660816163326,"launch":"5ef6a1e90059c33cee4a828a","longitude":-106.62941006625492,"velocity_kms":7.58784534291662,"version":"v1.0","id":"5f5a9c1d2fd30c00065e5e6e"},{"spaceTrack":{"CCSDS_OMM_VERS":"2.0","COMMENT":"GENERATED VIA SPACE-TRACK.ORG API","CREATION_DATE":"2021-10-26T14:26:12","ORIGINATOR":"18 SPCS","OBJECT_NAME":"STARLINK-1721","OBJECT_ID":"2020-062H","CENTER_NAME":"EARTH","REF_FRAME":"TEME","TIME_SYSTEM":"UTC","MEAN_ELEMENT_THEORY":"SGP4","EPOCH":"2021-10-26T05:02:39.895008","MEAN_MOTION":15.06405709,"ECCENTRICITY":0.0001435,"INCLINATION":53.0534,"RA_OF_ASC_NODE":339.0054,"ARG_OF_PERICENTER":85.7032,"MEAN_ANOMALY":274.4121,"EPHEMERIS_TYPE":0,"CLASSIFICATION_TYPE":"U","NORAD_CAT_ID":46332,"ELEMENT_SET_NO":999,"REV_AT_EPOCH":6401,"BSTAR":0.0001199,"MEAN_MOTION_DOT":0.00001505,"MEAN_MOTION_DDOT":0,"SEMIMAJOR_AXIS":6925.331,"PERIOD":95.592,"APOAPSIS":548.19,"PERIAPSIS":546.202,"OBJECT_TYPE":"PAYLOAD","RCS_SIZE":"LARGE","COUNTRY_CODE":"US","LAUNCH_DATE":"2020-09-03","SITE":"AFETR","DECAY_DATE":null,"DECAYED":0,"FILE":3184596,"GP_ID":188169846,"TLE_LINE0":"0 STARLINK-1721","TLE_LINE1":"1 46332U 20062H   21299.21018397  .00001505  00000-0  11990-3 0  9996","TLE_LINE2":"2 46332  53.0534 339.0054 0001435  85.7032 274.4121 15.06405709 64011"},"height_km":558.5034739852863,"latitude":-33.733352181074295,"launch":"5ef6a1e90059c33cee4a828a","longitude":-82.04313816960578,"velocity_kms":7.581706709953414,"version":"v1.0","id":"5f5a9c1d2fd30c00065e5e77"},{"spaceTrack":{"CCSDS_OMM_VERS":"2.0","COMMENT":"GENERATED VIA SPACE-TRACK.ORG API","CREATION_DATE":"2021-10-26T06:36:12","ORIGINATOR":"18 SPCS","OBJECT_NAME":"STARLINK-1770","OBJECT_ID":"2020-062BL","CENTER_NAME":"EARTH","REF_FRAME":"TEME","TIME_SYSTEM":"UTC","MEAN_ELEMENT_THEORY":"SGP4","EPOCH":"2021-10-25T15:19:58.978848","MEAN_MOTION":15.06402959,"ECCENTRICITY":0.0000982,"INCLINATION":53.0557,"RA_OF_ASC_NODE":341.5738,"ARG_OF_PERICENTER":73.0687,"MEAN_ANOMALY":287.0409,"EPHEMERIS_TYPE":0,"CLASSIFICATION_TYPE":"U","NORAD_CAT_ID":46383,"ELEMENT_SET_NO":999,"REV_AT_EPOCH":6392,"BSTAR":0.00012633,"MEAN_MOTION_DOT":0.00001601,"MEAN_MOTION_DDOT":0,"SEMIMAJOR_AXIS":6925.339,"PERIOD":95.592,"APOAPSIS":547.885,"PERIAPSIS":546.524,"OBJECT_TYPE":"PAYLOAD","RCS_SIZE":"LARGE","COUNTRY_CODE":"US","LAUNCH_DATE":"2020-09-03","SITE":"AFETR","DECAY_DATE":null,"DECAYED":0,"FILE":3183998,"GP_ID":188157347,"TLE_LINE0":"0 STARLINK-1770","TLE_LINE1":"1 46383U 20062BL  21298.63887707  .00001601  00000-0  12633-3 0  9998","TLE_LINE2":"2 46383  53.0557 341.5738 0000982  73.0687 287.0409 15.06402959 63923"},"height_km":552.9769784055561,"latitude":52.742284028600245,"launch":"5ef6a1e90059c33cee4a828a","longitude":147.50226448822391,"velocity_kms":7.591980417197337,"version":"v1.0","id":"5f5a9c1e2fd30c00065e5e83"},{"spaceTrack":{"CCSDS_OMM_VERS":"2.0","COMMENT":"GENERATED VIA SPACE-TRACK.ORG API","CREATION_DATE":"2021-10-26T06:26:11","ORIGINATOR":"18 SPCS","OBJECT_NAME":"STARLINK-1666","OBJECT_ID":"2020-062AJ","CENTER_NAME":"EARTH","REF_FRAME":"TEME","TIME_SYSTEM":"UTC","MEAN_ELEMENT_THEORY":"SGP4","EPOCH":"2021-10-26T01:43:36.859296","MEAN_MOTION":15.06400204,"ECCENTRICITY":0.000117,"INCLINATION":53.0557,"RA_OF_ASC_NODE":319.6354,"ARG_OF_PERICENTER":81.0859,"MEAN_ANOMALY":279.0263,"EPHEMERIS_TYPE":0,"CLASSIFICATION_TYPE":"U","NORAD_CAT_ID":46357,"ELEMENT_SET_NO":999,"REV_AT_EPOCH":6427,"BSTAR":0.00013667,"MEAN_MOTION_DOT":0.00001755,"MEAN_MOTION_DDOT":0,"SEMIMAJOR_AXIS":6925.348,"PERIOD":95.592,"APOAPSIS":548.023,"PERIAPSIS":546.403,"OBJECT_TYPE":"PAYLOAD","RCS_SIZE":"LARGE","COUNTRY_CODE":"US","LAUNCH_DATE":"2020-09-03","SITE":"AFETR","DECAY_DATE":null,"DECAYED":0,"FILE":3183948,"GP_ID":188156044,"TLE_LINE0":"0 STARLINK-1666","TLE_LINE1":"1 46357U 20062AJ  21299.07195439  .00001755  00000-0  13667-3 0  9990","TLE_LINE2":"2 46357  53.0557 319.6354 0001170  81.0859 279.0263 15.06400204 64273"},"height_km":565.332856292388,"latitude":-50.241340567275664,"launch":"5ef6a1e90059c33cee4a828a","longitude":-67.96524985120413,"velocity_kms":7.5778994394959,"version":"v1.0","id":"5f5a9c1e2fd30c00065e5e85"},{"spaceTrack":{"CCSDS_OMM_VERS":"2.0","COMMENT":"GENERATED VIA SPACE-TRACK.ORG API","CREATION_DATE":"2021-10-26T06:36:12","ORIGINATOR":"18 SPCS","OBJECT_NAME":"STARLINK-1707","OBJECT_ID":"2020-062AL","CENTER_NAME":"EARTH","REF_FRAME":"TEME","TIME_SYSTEM":"UTC","MEAN_ELEMENT_THEORY":"SGP4","EPOCH":"2021-10-26T00:45:55.055808","MEAN_MOTION":15.06401281,"ECCENTRICITY":0.0001542,"INCLINATION":53.0546,"RA_OF_ASC_NODE":294.8101,"ARG_OF_PERICENTER":77.544,"MEAN_ANOMALY":282.5721,"EPHEMERIS_TYPE":0,"CLASSIFICATION_TYPE":"U","NORAD_CAT_ID":46359,"ELEMENT_SET_NO":999,"REV_AT_EPOCH":6461,"BSTAR":0.000025708,"MEAN_MOTION_DOT":0.00000101,"MEAN_MOTION_DDOT":0,"SEMIMAJOR_AXIS":6925.345,"PERIOD":95.592,"APOAPSIS":548.278,"PERIAPSIS":546.142,"OBJECT_TYPE":"PAYLOAD","RCS_SIZE":"LARGE","COUNTRY_CODE":"US","LAUNCH_DATE":"2020-09-03","SITE":"AFETR","DECAY_DATE":null,"DECAYED":0,"FILE":3183972,"GP_ID":188156521,"TLE_LINE0":"0 STARLINK-1707","TLE_LINE1":"1 46359U 20062AL  21299.03188722  .00000101  00000-0  25708-4 0  9999","TLE_LINE2":"2 46359  53.0546 294.8101 0001542  77.5440 282.5721 15.06401281 64618"},"height_km":551.7489246405357,"latitude":48.33234694940904,"launch":"5ef6a1e90059c33cee4a828a","longitude":145.81067270608605,"velocity_kms":7.592355219883173,"version":"v1.0","id":"5f5a9c1e2fd30c00065e5e8e"},{"spaceTrack":{"CCSDS_OMM_VERS":"2.0","COMMENT":"GENERATED VIA SPACE-TRACK.ORG API","CREATION_DATE":"2021-10-26T14:56:12","ORIGINATOR":"18 SPCS","OBJECT_NAME":"STARLINK-1553","OBJECT_ID":"2020-062Z","CENTER_NAME":"EARTH","REF_FRAME":"TEME","TIME_SYSTEM":"UTC","MEAN_ELEMENT_THEORY":"SGP4","EPOCH":"2021-10-26T08:27:01.247328","MEAN_MOTION":15.06401692,"ECCENTRICITY":0.0001379,"INCLINATION":53.0545,"RA_OF_ASC_NODE":318.3619,"ARG_OF_PERICENTER":58.9536,"MEAN_ANOMALY":301.1588,"EPHEMERIS_TYPE":0,"CLASSIFICATION_TYPE":"U","NORAD_CAT_ID":46348,"ELEMENT_SET_NO":999,"REV_AT_EPOCH":6431,"BSTAR":-0.000102,"MEAN_MOTION_DOT":-0.000018,"MEAN_MOTION_DDOT":0,"SEMIMAJOR_AXIS":6925.343,"PERIOD":95.592,"APOAPSIS":548.163,"PERIAPSIS":546.253,"OBJECT_TYPE":"PAYLOAD","RCS_SIZE":"LARGE","COUNTRY_CODE":"US","LAUNCH_DATE":"2020-09-03","SITE":"AFETR","DECAY_DATE":null,"DECAYED":0,"FILE":3184874,"GP_ID":188176997,"TLE_LINE0":"0 STARLINK-1553","TLE_LINE1":"1 46348U 20062Z   21299.35209777 -.00001800  00000-0 -10200-3 0  9995","TLE_LINE2":"2 46348  53.0545 318.3619 0001379  58.9536 301.1588 15.06401692 64310"},"height_km":547.963885444382,"latitude":4.996782085306855,"launch":"5ef6a1e90059c33cee4a828a","longitude":-135.7639595666043,"velocity_kms":7.58937231151063,"version":"v1.0","id":"5f5a9c1e2fd30c00065e5e8c"},{"spaceTrack":{"CCSDS_OMM_VERS":"2.0","COMMENT":"GENERATED VIA SPACE-TRACK.ORG API","CREATION_DATE":"2021-10-26T06:36:12","ORIGINATOR":"18 SPCS","OBJECT_NAME":"STARLINK-1723","OBJECT_ID":"2020-062J","CENTER_NAME":"EARTH","REF_FRAME":"TEME","TIME_SYSTEM":"UTC","MEAN_ELEMENT_THEORY":"SGP4","EPOCH":"2021-10-26T02:12:49.271616","MEAN_MOTION":15.06404888,"ECCENTRICITY":0.0001448,"INCLINATION":53.0553,"RA_OF_ASC_NODE":339.5435,"ARG_OF_PERICENTER":67.0152,"MEAN_ANOMALY":293.0989,"EPHEMERIS_TYPE":0,"CLASSIFICATION_TYPE":"U","NORAD_CAT_ID":46333,"ELEMENT_SET_NO":999,"REV_AT_EPOCH":6399,"BSTAR":-0.0000080804,"MEAN_MOTION_DOT":-0.00000402,"MEAN_MOTION_DDOT":0,"SEMIMAJOR_AXIS":6925.334,"PERIOD":95.592,"APOAPSIS":548.201,"PERIAPSIS":546.196,"OBJECT_TYPE":"PAYLOAD","RCS_SIZE":"LARGE","COUNTRY_CODE":"US","LAUNCH_DATE":"2020-09-03","SITE":"AFETR","DECAY_DATE":null,"DECAYED":0,"FILE":3183983,"GP_ID":188156706,"TLE_LINE0":"0 STARLINK-1723","TLE_LINE1":"1 46333U 20062J   21299.09223694 -.00000402  00000-0 -80804-5 0  9990","TLE_LINE2":"2 46333  53.0553 339.5435 0001448  67.0152 293.0989 15.06404888 63993"},"height_km":548.369291039231,"latitude":28.31848490804962,"launch":"5ef6a1e90059c33cee4a828a","longitude":-135.7669071509263,"velocity_kms":7.591736186146091,"version":"v1.0","id":"5f5a9c1e2fd30c00065e5e94"}]